#dP2021  8  4 12  0  0.00000000      96 __u+U ITR00 EXT  IAC
## 2169 302400.00000000   900.00000000 59430 0.5000000000000
+  115   C07C08C09C10C11C12C13C14C16C19C20C21C22C23C24C25C26
+        C27C28C29C30C32C33C34C35C36C37C38C40C41C42C43C44C45
+        C46E01E02E03E04E05E07E08E09E11E12E13E14E15E18E19E21
+        E24E25E26E27E30E31E33E36G01G02G03G04G05G06G07G08G09
+        G10G11G12G13G14G15G16G17G18G19G20G21G22G23G24G25G26
+        G27G28G29G30G31G32J01J02J03R01R02R03R04R05R07R08R09
+        R11R12R13R14R15R16R17R18R19R20R21R22R24  0  0  0  0
++         9 10 10 10  9  9 10 12 10  9  8  9  9  9  8 10  9
++         9  9  8  7  9 10  9  8  8  8  8 10 10  9  9  8  7
++         8  9  8  8  7  7  8  6  8  7  9  8  7  8  8  8  8
++         8  7  6  8  7  9  8  8  7  7  6  7  7  7  6  6  7
++         7  7  6  6  7  7  8  6  7  8  7  8  6  6  7  8  6
++         7  7  9  8  9  7 13  9  9  9  9  7  7  6  8 10  9
++         9  8  7  7  9  9  8 10  8  8  7  9  8  0  0  0  0
%c M  cc GPS ccc cccc cccc cccc cccc ccccc ccccc ccccc ccccc
%c cc cc ccc ccc cccc cccc cccc cccc ccccc ccccc ccccc ccccc
%f  0.0000000  0.000000000  0.00000000000  0.000000000000000
%f  0.0000000  0.000000000  0.00000000000  0.000000000000000
%i    0    0    0    0      0      0      0      0         0
%i    0    0    0    0      0      0      0      0         0
/* IAC                                ULTRA-RAPID PREDICTION
/* S/V CLOCKS ARE ALIGNED TO GNSS TIME                      
/* G:C1WC2W R:C1PC2P E:C1XC5X C:C2IC6I J:C1CC2S             
/* PCV:IGS14_2163 OL/AL:FES2004  NONE     YN ORB:CoN CLK:CoN
*  2021 08 04 21 15  0.00000000
PC07 -12912.479969  23611.070904  32713.480793     46.214058
PC08 -25447.641369  29469.260108 -16525.600413   -915.227188
PC09   -753.773121  41865.871131  -1823.262497     -2.026512
PC10   1431.894166  28107.886833  31729.887517    -11.763067
PC11  -2324.297766  27743.933068   2310.970677    497.970047
PC12 -12056.010919  17787.599071  17848.666328    791.304880
PC13 -12309.525929  30123.945125 -26871.225246    361.785434
PC14   2063.464895  18115.009645 -21122.969933    747.155990
PC16  -7689.779940  38616.526432 -14663.703317   -878.770267
PC19 -12158.231322 -19564.539423  15759.572741    934.725638
PC20   6525.970026 -14501.489906  22942.057646   -827.246382
PC21 -22286.364103    452.597997 -16759.264440   -938.687108
PC22 -24404.745506 -13470.678691   -857.678174   -949.506112
PC23  19327.109715   5144.236560  19476.331211   -963.538287
PC24 -17246.815417  18899.970860  11165.440464   -964.179241
PC25   2653.355839  16825.107666  22107.018553   -875.327812
PC26 -25224.498086  10897.621169  -4972.950284    869.012981
PC27  15300.276252  -8076.255365 -21919.878371    575.587060
PC28  13782.335136  13263.321425 -20323.752383    -42.421593
PC29  -5198.631576 -26561.164333   6782.972058    428.881792
PC30   7256.971473 -24553.562348 -11128.128651    476.355202
PC32  22332.440806   -598.911954  16743.326497   -928.469508
PC33  12226.932113  19517.520282 -15770.179188   -951.974289
PC34  -6849.935896  24955.435596  10407.890597   -612.464010
PC35 -14173.875734 -13200.255039  20090.486600   -154.948887
PC36  -1846.738885 -17026.091473 -22000.634533   -739.645099
PC37  25523.457085  -9618.339874   5886.855408   -862.000634
PC38 -22670.712064  31005.263514 -17556.074940    166.358387
PC40  -2590.544221  23464.357060  34995.450995    187.160422
PC41  24384.063673  13559.994957    583.622396   -969.429718
PC42  -7316.951290  14104.570658 -22900.787468   -928.004749
PC43   4778.769950  26762.604625  -6269.559332   -852.941623
PC44 -15170.209426   8332.850318  21872.285143    324.450434
PC45 -19410.538849  -4866.427272 -19444.177702    511.887033
PC46  16329.825227 -19079.913700 -12120.465307    147.181896
PE01    352.680780  16559.379689  24539.800007  -1164.733016
PE02   -525.211145 -16548.238170 -24531.357545    237.673129
PE03  -6618.579825 -26328.429298  11778.235806   -460.154949
PE04  18937.321248  21845.828366   6368.721280   -828.038083
PE05   9785.174705 -15421.117304  23296.825834   -259.798745
PE07 -20285.771878  -4334.144061 -21103.583691   -569.887187
PE08 -19128.987543 -21555.508134  -6715.618046   5959.343270
PE09  20164.192492   4135.152857  21283.384224   5577.154672
PE11  19322.932938  -6779.933102 -21391.599272   5623.924752
PE12  10027.870860  14418.438232 -23831.883269   5076.670737
PE13 -19145.193062   6391.137811  21648.247843    419.879404
PE14  17167.224615 -11144.899685 -24021.695407  -1524.189486
PE15 -10013.865186 -14340.116583  23878.371581    799.745770
PE18  -6382.395633  19854.490449  14589.322052  -1671.256131
PE19   4781.384690  25786.950620 -13718.655303    344.090547
PE21 -19897.844661  12716.056425  17851.370887   -680.135992
PE24  29583.674278   -590.146041    351.306342  -1045.183505
PE25  20097.150624 -12611.826230 -17687.596346   -542.196232
PE26 -16749.170284  23717.339345   5776.526496   1499.365424
PE27 -29565.763024   1348.241422    565.312440    -90.761871
PE30 -20848.030589 -11401.120607 -17656.995467   2728.300043
PE31  21772.434375  10744.002741  16948.768303   -484.033418
PE33  -4990.664483  26574.789527 -12044.721587   -466.718647
PE36  16989.645429 -23298.906335  -6692.789076   -243.906757
PG01 -13298.502772  22216.346629  -5309.243659    607.388648
PG02  19091.590433  -9395.131994 -15286.759158   -624.225063
PG03 -10877.505727  12742.501081 -20677.178669   -242.894624
PG04  -3168.063566  21741.594404 -14872.650479   -203.504869
PG05  21664.452243  -7286.930443  13505.670890    -50.079559
PG06  15347.879025   3452.724656 -21352.055587     50.689796
PG07   -740.024821  20437.445157  17041.410118    217.968324
PG08 -10215.924533  12768.620314  20852.525010    -31.379966
PG09   6611.407441  25188.734871  -5225.363548   -357.848646
PG10 -20239.166410 -11772.464170  12915.783546   -175.902261
PG11  20403.447820  -6396.059880 -15768.179570     29.364717
PG12  11741.512602 -11963.531829 -20821.069633    -78.304146
PG13  14376.122095  -4261.138317  21783.560270    166.919843
PG14  20005.691741  12524.132334  12224.424125     31.259445
PG15   9137.241152 -14338.123287  19952.170208   -130.683650
PG16 -25176.120778    278.227587   8904.737926   -368.362553
PG17  12839.953823  21667.985905  -7989.659112    484.381001
PG18   -625.796830 -19140.308496  18354.380221    335.634666
PG19  15468.453679  14634.878953 -16247.148903     35.358446
PG20  26270.800906  -1721.490667   2143.798060    519.824571
PG21 -16984.839399  19685.367991   4482.790083    135.358551
PG22 -17811.119913  11073.031718 -16001.794244   -546.361462
PG23  -9352.645092 -14932.536220  19869.690639     75.203952
PG24  14769.959506 -21807.309167     64.963640    198.200982
PG25   -909.790448 -15535.212729 -21806.371037    185.543545
PG26 -26201.818770  -4476.764574  -2675.493588    118.817104
PG27 -15207.885704   1373.469359  21591.037346   -173.424217
PG28  23123.657279  10818.301773   7503.260022    525.707722
PG29  -3241.814844 -25405.086698  -6960.840658   -391.126860
PG30  10044.001380  12427.810061  21264.758548   -458.611455
PG31 -17185.045279  -1818.772287 -20376.075360   -132.479404
PG32 -15702.886555 -18683.948008 -10571.899787      9.939216
PJ01 -22457.440584  18339.457363 -26039.688363   -431.594132
PJ02 -31258.405324  23939.632697  19928.451640     -1.289870
PJ03 -27492.903165  27096.225985  22116.810904     -0.552984
PR01   9876.853886  -6025.127252  22735.150512     83.357238
PR02  -8294.906760 -17621.862379  16547.154298    488.556723
PR03 -19142.783122 -16893.529102    560.771059     40.715296
PR04 -18981.656999  -6821.679735 -15593.146658     98.808381
PR05  -8354.489863   7017.892394 -23047.474625     76.577979
PR07  19342.141981  16592.745864    250.408335    -41.775343
PR08  19012.525475   6605.401861  15711.084923    -60.208826
PR09  -3002.231610  12628.214359  21966.672974      6.426249
PR11  23901.816503  -5049.840967   7383.205878     45.752777
PR12  19505.230059 -12357.376001 -10792.048440    250.979608
PR13   4017.802340 -12584.795274 -21830.029690    -58.668966
PR14 -14706.609211  -5124.377038 -20177.055840     67.275721
PR15 -24074.800448   5029.174490  -6729.053406    102.282632
PR16 -18494.190353  13159.793390  11749.301991    -19.019381
PR17  -6000.527146 -15363.174232  19442.755223    447.005721
PR18 -10930.783792   2060.118006  22958.251225     85.815381
PR19 -10828.973599  17579.132847  14979.882965   -154.180892
PR20  -3711.228465  24836.459529  -4373.698131    -53.601145
PR21   6395.118267  14304.482667 -20146.060951   -229.056985
PR22  11062.080062  -3256.199677 -22784.030980   -126.196909
PR24   2820.257803 -24832.973631   5060.664607     53.215862
EOF
